<?xml version="1.0" encoding="UTF-8" standalone="no" ?>
<gpx xmlns="http://www.topografix.com/GPX/1/1" creator="www.plotaroute.com" version="1.1"  xmlns:xsi="http://www.w3.org/2001/XMLSchema-instance" xsi:schemaLocation="http://www.topografix.com/GPX/1/1 http://www.topografix.com/GPX/1/1/gpx.xsd">
<metadata>
<desc>Route created on plotaroute.com</desc>
</metadata>
<wpt lat="46.354383" lon="6.317248">
<time>2026-09-27T00:00:00Z</time>
<name>Start on C</name>
<cmt>Start on Chemin de Vorget</cmt>
<desc>Start on Chemin de Vorget</desc>
<sym>Flag, Blue</sym>
<type>Waypoint</type>
</wpt>
<wpt lat="46.35487" lon="6.317262">
<time>2026-09-27T00:00:20Z</time>
<name>Tournez à </name>
<cmt>Tournez à droite sur Chemin de Vorget</cmt>
<desc>Tournez à droite sur Chemin de Vorget</desc>
<sym>Right</sym>
<type>Waypoint</type>
</wpt>
<wpt lat="46.355357" lon="6.317632">
<time>2026-09-27T00:00:43Z</time>
<name>Tournez à </name>
<cmt>Tournez à droite sur Chemin des Grands Champs</cmt>
<desc>Tournez à droite sur Chemin des Grands Champs</desc>
<sym>Right</sym>
<type>Waypoint</type>
</wpt>
<wpt lat="46.353088" lon="6.321053">
<time>2026-09-27T00:03:41Z</time>
<name>Tournez à </name>
<cmt>Tournez à droite sur Route de Fécler</cmt>
<desc>Tournez à droite sur Route de Fécler</desc>
<sym>Right</sym>
<type>Waypoint</type>
</wpt>
<wpt lat="46.353007" lon="6.320072">
<time>2026-09-27T00:04:09Z</time>
<name>Restez sur</name>
<cmt>Restez sur la gauche sur Rue de Trai les Granges</cmt>
<desc>Restez sur la gauche sur Rue de Trai les Granges</desc>
<sym>Left_slight</sym>
<type>Waypoint</type>
</wpt>
<wpt lat="46.351723" lon="6.320018">
<time>2026-09-27T00:05:02Z</time>
<name>Tournez à </name>
<cmt>Tournez à droite sur Chemin d&#39;Avau</cmt>
<desc>Tournez à droite sur Chemin d&#39;Avau</desc>
<sym>Right</sym>
<type>Waypoint</type>
</wpt>
<wpt lat="46.351675" lon="6.319479">
<time>2026-09-27T00:05:17Z</time>
<name>Tournez fo</name>
<cmt>Tournez fort à gauche</cmt>
<desc>Tournez fort à gauche</desc>
<sym>Left_sharp</sym>
<type>Waypoint</type>
</wpt>
<wpt lat="46.346573" lon="6.319538">
<time>2026-09-27T00:09:06Z</time>
<name>Restez sur</name>
<cmt>Restez sur la droite</cmt>
<desc>Restez sur la droite</desc>
<sym>Right</sym>
<type>Waypoint</type>
</wpt>
<wpt lat="46.349632" lon="6.31476">
<time>2026-09-27T00:12:19Z</time>
<name>Tournez fo</name>
<cmt>Tournez fort à gauche</cmt>
<desc>Tournez fort à gauche</desc>
<sym>Left_sharp</sym>
<type>Waypoint</type>
</wpt>
<wpt lat="46.343926" lon="6.314582">
<time>2026-09-27T00:16:22Z</time>
<name>Restez sur</name>
<cmt>Restez sur la droite</cmt>
<desc>Restez sur la droite</desc>
<sym>Right_slight</sym>
<type>Waypoint</type>
</wpt>
<wpt lat="46.340728" lon="6.309897">
<time>2026-09-27T00:19:27Z</time>
<name>Tournez fo</name>
<cmt>Tournez fort à droite sur Chemin du Plantez</cmt>
<desc>Tournez fort à droite sur Chemin du Plantez</desc>
<sym>Right_sharp</sym>
<type>Waypoint</type>
</wpt>
<wpt lat="46.349479" lon="6.308114">
<time>2026-09-27T00:25:53Z</time>
<name>Tournez à </name>
<cmt>Tournez à droite sur Chemin de Plantez à Essert</cmt>
<desc>Tournez à droite sur Chemin de Plantez à Essert</desc>
<sym>Right</sym>
<type>Waypoint</type>
</wpt>
<wpt lat="46.350997" lon="6.315578">
<time>2026-09-27T00:29:39Z</time>
<name>Tournez à </name>
<cmt>Tournez à gauche</cmt>
<desc>Tournez à gauche</desc>
<sym>Left</sym>
<type>Waypoint</type>
</wpt>
<wpt lat="46.352749" lon="6.317534">
<time>2026-09-27T00:31:11Z</time>
<name>Tournez à </name>
<cmt>Tournez à gauche sur Chemin d&#39;Avau</cmt>
<desc>Tournez à gauche sur Chemin d&#39;Avau</desc>
<sym>Left</sym>
<type>Waypoint</type>
</wpt>
<wpt lat="46.352916" lon="6.31754">
<time>2026-09-27T00:31:18Z</time>
<name>Restez sur</name>
<cmt>Restez sur la droite sur Rue de la Péri Blanc</cmt>
<desc>Restez sur la droite sur Rue de la Péri Blanc</desc>
<sym>Right_slight</sym>
<type>Waypoint</type>
</wpt>
<wpt lat="46.353342" lon="6.317969">
<time>2026-09-27T00:31:39Z</time>
<name>Restez sur</name>
<cmt>Restez sur la droite sur Rue d&#39;Essert</cmt>
<desc>Restez sur la droite sur Rue d&#39;Essert</desc>
<sym>Right</sym>
<type>Waypoint</type>
</wpt>
<wpt lat="46.353007" lon="6.320072">
<time>2026-09-27T00:32:40Z</time>
<name>Tournez fo</name>
<cmt>Tournez fort à droite sur Rue de Trai les Granges</cmt>
<desc>Tournez fort à droite sur Rue de Trai les Granges</desc>
<sym>Right_sharp</sym>
<type>Waypoint</type>
</wpt>
<wpt lat="46.351723" lon="6.320018">
<time>2026-09-27T00:33:33Z</time>
<name>Tournez à </name>
<cmt>Tournez à droite sur Chemin d&#39;Avau</cmt>
<desc>Tournez à droite sur Chemin d&#39;Avau</desc>
<sym>Right</sym>
<type>Waypoint</type>
</wpt>
<wpt lat="46.351675" lon="6.319479">
<time>2026-09-27T00:33:48Z</time>
<name>Tournez fo</name>
<cmt>Tournez fort à gauche</cmt>
<desc>Tournez fort à gauche</desc>
<sym>Left_sharp</sym>
<type>Waypoint</type>
</wpt>
<wpt lat="46.346573" lon="6.319538">
<time>2026-09-27T00:37:38Z</time>
<name>Restez sur</name>
<cmt>Restez sur la droite</cmt>
<desc>Restez sur la droite</desc>
<sym>Right</sym>
<type>Waypoint</type>
</wpt>
<wpt lat="46.349632" lon="6.31476">
<time>2026-09-27T00:40:50Z</time>
<name>Tournez fo</name>
<cmt>Tournez fort à gauche</cmt>
<desc>Tournez fort à gauche</desc>
<sym>Left_sharp</sym>
<type>Waypoint</type>
</wpt>
<wpt lat="46.343926" lon="6.314582">
<time>2026-09-27T00:44:53Z</time>
<name>Restez sur</name>
<cmt>Restez sur la droite</cmt>
<desc>Restez sur la droite</desc>
<sym>Right_slight</sym>
<type>Waypoint</type>
</wpt>
<wpt lat="46.340728" lon="6.309897">
<time>2026-09-27T00:47:58Z</time>
<name>Tournez fo</name>
<cmt>Tournez fort à droite sur Chemin du Plantez</cmt>
<desc>Tournez fort à droite sur Chemin du Plantez</desc>
<sym>Right_sharp</sym>
<type>Waypoint</type>
</wpt>
<wpt lat="46.349479" lon="6.308114">
<time>2026-09-27T00:54:24Z</time>
<name>Tournez à </name>
<cmt>Tournez à droite sur Chemin de Plantez à Essert</cmt>
<desc>Tournez à droite sur Chemin de Plantez à Essert</desc>
<sym>Right</sym>
<type>Waypoint</type>
</wpt>
<wpt lat="46.350997" lon="6.315578">
<time>2026-09-27T00:58:10Z</time>
<name>Tournez à </name>
<cmt>Tournez à gauche</cmt>
<desc>Tournez à gauche</desc>
<sym>Left</sym>
<type>Waypoint</type>
</wpt>
<wpt lat="46.352749" lon="6.317534">
<time>2026-09-27T00:59:43Z</time>
<name>Tournez à </name>
<cmt>Tournez à gauche sur Chemin d&#39;Avau</cmt>
<desc>Tournez à gauche sur Chemin d&#39;Avau</desc>
<sym>Left</sym>
<type>Waypoint</type>
</wpt>
<wpt lat="46.352916" lon="6.31754">
<time>2026-09-27T00:59:49Z</time>
<name>Restez sur</name>
<cmt>Restez sur la gauche sur Chemin d&#39;Avau</cmt>
<desc>Restez sur la gauche sur Chemin d&#39;Avau</desc>
<sym>Left_slight</sym>
<type>Waypoint</type>
</wpt>
<wpt lat="46.353508" lon="6.317389">
<time>2026-09-27T01:00:14Z</time>
<name>Tournez à </name>
<cmt>Tournez à droite</cmt>
<desc>Tournez à droite</desc>
<sym>Right</sym>
<type>Waypoint</type>
</wpt>
<wpt lat="46.354038" lon="6.31724">
<time>2026-09-27T01:00:37Z</time>
<name>Restez sur</name>
<cmt>Restez sur la droite sur Chemin de Vorget</cmt>
<desc>Restez sur la droite sur Chemin de Vorget</desc>
<sym>Straight</sym>
<type>Waypoint</type>
</wpt>
<wpt lat="46.354376" lon="6.317247">
<time>2026-09-27T01:00:51Z</time>
<name>FINISH</name>
<cmt>FINISH</cmt>
<desc>FINISH</desc>
<sym>Flag, Blue</sym>
<type>Waypoint</type>
</wpt>
<trk>
<name>M’Essert Run 10km 2026</name>
<trkseg>
<trkpt lat="46.354383" lon="6.317248">
<ele>447</ele>
<time>2026-09-27T00:00:00Z</time></trkpt>
<trkpt lat="46.354383" lon="6.317248">
<ele>447</ele>
<time>2026-09-27T00:00:00Z</time></trkpt>
<trkpt lat="46.354399" lon="6.317248">
<ele>447</ele>
<time>2026-09-27T00:00:01Z</time></trkpt>
<trkpt lat="46.354572" lon="6.317255">
<ele>446</ele>
<time>2026-09-27T00:00:08Z</time></trkpt>
<trkpt lat="46.354783" lon="6.317296">
<ele>445</ele>
<time>2026-09-27T00:00:16Z</time></trkpt>
<trkpt lat="46.354824" lon="6.317288">
<ele>444</ele>
<time>2026-09-27T00:00:18Z</time></trkpt>
<trkpt lat="46.35487" lon="6.317262">
<ele>444</ele>
<time>2026-09-27T00:00:20Z</time></trkpt>
<trkpt lat="46.35497" lon="6.317446">
<ele>443</ele>
<time>2026-09-27T00:00:26Z</time></trkpt>
<trkpt lat="46.355031" lon="6.317521">
<ele>443</ele>
<time>2026-09-27T00:00:29Z</time></trkpt>
<trkpt lat="46.355086" lon="6.31755">
<ele>442</ele>
<time>2026-09-27T00:00:32Z</time></trkpt>
<trkpt lat="46.355348" lon="6.317629">
<ele>441</ele>
<time>2026-09-27T00:00:42Z</time></trkpt>
<trkpt lat="46.355348" lon="6.317629">
<ele>441</ele>
<time>2026-09-27T00:00:42Z</time></trkpt>
<trkpt lat="46.355357" lon="6.317632">
<ele>441</ele>
<time>2026-09-27T00:00:43Z</time></trkpt>
<trkpt lat="46.355386" lon="6.31835">
<ele>439</ele>
<time>2026-09-27T00:01:03Z</time></trkpt>
<trkpt lat="46.355443" lon="6.318642">
<ele>439</ele>
<time>2026-09-27T00:01:11Z</time></trkpt>
<trkpt lat="46.355443" lon="6.318642">
<ele>439</ele>
<time>2026-09-27T00:01:11Z</time></trkpt>
<trkpt lat="46.355485" lon="6.318857">
<ele>438</ele>
<time>2026-09-27T00:01:17Z</time></trkpt>
<trkpt lat="46.355485" lon="6.319027">
<ele>438</ele>
<time>2026-09-27T00:01:22Z</time></trkpt>
<trkpt lat="46.355458" lon="6.319205">
<ele>438</ele>
<time>2026-09-27T00:01:27Z</time></trkpt>
<trkpt lat="46.35498" lon="6.320731">
<ele>438</ele>
<time>2026-09-27T00:02:13Z</time></trkpt>
<trkpt lat="46.35498" lon="6.320731">
<ele>438</ele>
<time>2026-09-27T00:02:13Z</time></trkpt>
<trkpt lat="46.354906" lon="6.32094">
<ele>438</ele>
<time>2026-09-27T00:02:20Z</time></trkpt>
<trkpt lat="46.354846" lon="6.321023">
<ele>438</ele>
<time>2026-09-27T00:02:23Z</time></trkpt>
<trkpt lat="46.354788" lon="6.321039">
<ele>439</ele>
<time>2026-09-27T00:02:26Z</time></trkpt>
<trkpt lat="46.354605" lon="6.320991">
<ele>441</ele>
<time>2026-09-27T00:02:33Z</time></trkpt>
<trkpt lat="46.354531" lon="6.321025">
<ele>441</ele>
<time>2026-09-27T00:02:36Z</time></trkpt>
<trkpt lat="46.354487" lon="6.321108">
<ele>442</ele>
<time>2026-09-27T00:02:39Z</time></trkpt>
<trkpt lat="46.354411" lon="6.321371">
<ele>441</ele>
<time>2026-09-27T00:02:47Z</time></trkpt>
<trkpt lat="46.354317" lon="6.321418">
<ele>442</ele>
<time>2026-09-27T00:02:51Z</time></trkpt>
<trkpt lat="46.3538" lon="6.321275">
<ele>446</ele>
<time>2026-09-27T00:03:12Z</time></trkpt>
<trkpt lat="46.3538" lon="6.321275">
<ele>446</ele>
<time>2026-09-27T00:03:12Z</time></trkpt>
<trkpt lat="46.353288" lon="6.321126">
<ele>449</ele>
<time>2026-09-27T00:03:33Z</time></trkpt>
<trkpt lat="46.353088" lon="6.321053">
<ele>450</ele>
<time>2026-09-27T00:03:41Z</time></trkpt>
<trkpt lat="46.353041" lon="6.320507">
<ele>450</ele>
<time>2026-09-27T00:03:56Z</time></trkpt>
<trkpt lat="46.353019" lon="6.32012">
<ele>450</ele>
<time>2026-09-27T00:04:07Z</time></trkpt>
<trkpt lat="46.353007" lon="6.320072">
<ele>450</ele>
<time>2026-09-27T00:04:09Z</time></trkpt>
<trkpt lat="46.352994" lon="6.32005">
<ele>450</ele>
<time>2026-09-27T00:04:09Z</time></trkpt>
<trkpt lat="46.35296" lon="6.320025">
<ele>450</ele>
<time>2026-09-27T00:04:11Z</time></trkpt>
<trkpt lat="46.352574" lon="6.319835">
<ele>448</ele>
<time>2026-09-27T00:04:27Z</time></trkpt>
<trkpt lat="46.352496" lon="6.31982">
<ele>447</ele>
<time>2026-09-27T00:04:30Z</time></trkpt>
<trkpt lat="46.352279" lon="6.319862">
<ele>445</ele>
<time>2026-09-27T00:04:39Z</time></trkpt>
<trkpt lat="46.352279" lon="6.319862">
<ele>445</ele>
<time>2026-09-27T00:04:39Z</time></trkpt>
<trkpt lat="46.351723" lon="6.320018">
<ele>441</ele>
<time>2026-09-27T00:05:02Z</time></trkpt>
<trkpt lat="46.351681" lon="6.31971">
<ele>440</ele>
<time>2026-09-27T00:05:11Z</time></trkpt>
<trkpt lat="46.351674" lon="6.319633">
<ele>440</ele>
<time>2026-09-27T00:05:13Z</time></trkpt>
<trkpt lat="46.351675" lon="6.319479">
<ele>440</ele>
<time>2026-09-27T00:05:17Z</time></trkpt>
<trkpt lat="46.351569" lon="6.319515">
<ele>439</ele>
<time>2026-09-27T00:05:21Z</time></trkpt>
<trkpt lat="46.350262" lon="6.320364">
<ele>434</ele>
<time>2026-09-27T00:06:19Z</time></trkpt>
<trkpt lat="46.350084" lon="6.320466">
<ele>434</ele>
<time>2026-09-27T00:06:26Z</time></trkpt>
<trkpt lat="46.350084" lon="6.320466">
<ele>434</ele>
<time>2026-09-27T00:06:26Z</time></trkpt>
<trkpt lat="46.34925" lon="6.320827">
<ele>433</ele>
<time>2026-09-27T00:07:01Z</time></trkpt>
<trkpt lat="46.349081" lon="6.320885">
<ele>433</ele>
<time>2026-09-27T00:07:08Z</time></trkpt>
<trkpt lat="46.348646" lon="6.32101">
<ele>433</ele>
<time>2026-09-27T00:07:26Z</time></trkpt>
<trkpt lat="46.34836" lon="6.321153">
<ele>433</ele>
<time>2026-09-27T00:07:38Z</time></trkpt>
<trkpt lat="46.348258" lon="6.321177">
<ele>433</ele>
<time>2026-09-27T00:07:42Z</time></trkpt>
<trkpt lat="46.348206" lon="6.321172">
<ele>433</ele>
<time>2026-09-27T00:07:44Z</time></trkpt>
<trkpt lat="46.348106" lon="6.321129">
<ele>433</ele>
<time>2026-09-27T00:07:49Z</time></trkpt>
<trkpt lat="46.34802" lon="6.321044">
<ele>433</ele>
<time>2026-09-27T00:07:53Z</time></trkpt>
<trkpt lat="46.347641" lon="6.320364">
<ele>431</ele>
<time>2026-09-27T00:08:17Z</time></trkpt>
<trkpt lat="46.347555" lon="6.32023">
<ele>431</ele>
<time>2026-09-27T00:08:22Z</time></trkpt>
<trkpt lat="46.347515" lon="6.320186">
<ele>431</ele>
<time>2026-09-27T00:08:24Z</time></trkpt>
<trkpt lat="46.347423" lon="6.320126">
<ele>431</ele>
<time>2026-09-27T00:08:28Z</time></trkpt>
<trkpt lat="46.347164" lon="6.320017">
<ele>431</ele>
<time>2026-09-27T00:08:39Z</time></trkpt>
<trkpt lat="46.347094" lon="6.319973">
<ele>431</ele>
<time>2026-09-27T00:08:42Z</time></trkpt>
<trkpt lat="46.346966" lon="6.319856">
<ele>431</ele>
<time>2026-09-27T00:08:48Z</time></trkpt>
<trkpt lat="46.346875" lon="6.319756">
<ele>431</ele>
<time>2026-09-27T00:08:53Z</time></trkpt>
<trkpt lat="46.346875" lon="6.319756">
<ele>431</ele>
<time>2026-09-27T00:08:53Z</time></trkpt>
<trkpt lat="46.34677" lon="6.31964">
<ele>431</ele>
<time>2026-09-27T00:08:58Z</time></trkpt>
<trkpt lat="46.3467" lon="6.319594">
<ele>431</ele>
<time>2026-09-27T00:09:01Z</time></trkpt>
<trkpt lat="46.346612" lon="6.319565">
<ele>430</ele>
<time>2026-09-27T00:09:05Z</time></trkpt>
<trkpt lat="46.346573" lon="6.319538">
<ele>430</ele>
<time>2026-09-27T00:09:06Z</time></trkpt>
<trkpt lat="46.346548" lon="6.319484">
<ele>430</ele>
<time>2026-09-27T00:09:08Z</time></trkpt>
<trkpt lat="46.346544" lon="6.319452">
<ele>430</ele>
<time>2026-09-27T00:09:09Z</time></trkpt>
<trkpt lat="46.346598" lon="6.31905">
<ele>430</ele>
<time>2026-09-27T00:09:20Z</time></trkpt>
<trkpt lat="46.346604" lon="6.318944">
<ele>430</ele>
<time>2026-09-27T00:09:23Z</time></trkpt>
<trkpt lat="46.346596" lon="6.318587">
<ele>430</ele>
<time>2026-09-27T00:09:33Z</time></trkpt>
<trkpt lat="46.346616" lon="6.318468">
<ele>430</ele>
<time>2026-09-27T00:09:37Z</time></trkpt>
<trkpt lat="46.34666" lon="6.318363">
<ele>430</ele>
<time>2026-09-27T00:09:40Z</time></trkpt>
<trkpt lat="46.347055" lon="6.317839">
<ele>430</ele>
<time>2026-09-27T00:10:01Z</time></trkpt>
<trkpt lat="46.347328" lon="6.317437">
<ele>430</ele>
<time>2026-09-27T00:10:17Z</time></trkpt>
<trkpt lat="46.347542" lon="6.317164">
<ele>430</ele>
<time>2026-09-27T00:10:28Z</time></trkpt>
<trkpt lat="46.347967" lon="6.316694">
<ele>431</ele>
<time>2026-09-27T00:10:50Z</time></trkpt>
<trkpt lat="46.348203" lon="6.316405">
<ele>433</ele>
<time>2026-09-27T00:11:02Z</time></trkpt>
<trkpt lat="46.348282" lon="6.316274">
<ele>433</ele>
<time>2026-09-27T00:11:07Z</time></trkpt>
<trkpt lat="46.348282" lon="6.316274">
<ele>433</ele>
<time>2026-09-27T00:11:07Z</time></trkpt>
<trkpt lat="46.348443" lon="6.31601">
<ele>434</ele>
<time>2026-09-27T00:11:17Z</time></trkpt>
<trkpt lat="46.348624" lon="6.315761">
<ele>435</ele>
<time>2026-09-27T00:11:27Z</time></trkpt>
<trkpt lat="46.348826" lon="6.31552">
<ele>437</ele>
<time>2026-09-27T00:11:37Z</time></trkpt>
<trkpt lat="46.348937" lon="6.315423">
<ele>438</ele>
<time>2026-09-27T00:11:42Z</time></trkpt>
<trkpt lat="46.349116" lon="6.315315">
<ele>439</ele>
<time>2026-09-27T00:11:50Z</time></trkpt>
<trkpt lat="46.349342" lon="6.315254">
<ele>439</ele>
<time>2026-09-27T00:11:59Z</time></trkpt>
<trkpt lat="46.349378" lon="6.315226">
<ele>439</ele>
<time>2026-09-27T00:12:01Z</time></trkpt>
<trkpt lat="46.349413" lon="6.315144">
<ele>439</ele>
<time>2026-09-27T00:12:04Z</time></trkpt>
<trkpt lat="46.349468" lon="6.314892">
<ele>437</ele>
<time>2026-09-27T00:12:11Z</time></trkpt>
<trkpt lat="46.349485" lon="6.314855">
<ele>436</ele>
<time>2026-09-27T00:12:12Z</time></trkpt>
<trkpt lat="46.349511" lon="6.31482">
<ele>436</ele>
<time>2026-09-27T00:12:14Z</time></trkpt>
<trkpt lat="46.349555" lon="6.314788">
<ele>436</ele>
<time>2026-09-27T00:12:16Z</time></trkpt>
<trkpt lat="46.349632" lon="6.31476">
<ele>435</ele>
<time>2026-09-27T00:12:19Z</time></trkpt>
<trkpt lat="46.349238" lon="6.314481">
<ele>434</ele>
<time>2026-09-27T00:12:36Z</time></trkpt>
<trkpt lat="46.349079" lon="6.314384">
<ele>433</ele>
<time>2026-09-27T00:12:43Z</time></trkpt>
<trkpt lat="46.349008" lon="6.314352">
<ele>433</ele>
<time>2026-09-27T00:12:46Z</time></trkpt>
<trkpt lat="46.348862" lon="6.314312">
<ele>432</ele>
<time>2026-09-27T00:12:52Z</time></trkpt>
<trkpt lat="46.348787" lon="6.314306">
<ele>432</ele>
<time>2026-09-27T00:12:55Z</time></trkpt>
<trkpt lat="46.348493" lon="6.314344">
<ele>430</ele>
<time>2026-09-27T00:13:07Z</time></trkpt>
<trkpt lat="46.348299" lon="6.314404">
<ele>430</ele>
<time>2026-09-27T00:13:15Z</time></trkpt>
<trkpt lat="46.348215" lon="6.314449">
<ele>430</ele>
<time>2026-09-27T00:13:19Z</time></trkpt>
<trkpt lat="46.348148" lon="6.314506">
<ele>430</ele>
<time>2026-09-27T00:13:22Z</time></trkpt>
<trkpt lat="46.348086" lon="6.314575">
<ele>430</ele>
<time>2026-09-27T00:13:25Z</time></trkpt>
<trkpt lat="46.348037" lon="6.31465">
<ele>430</ele>
<time>2026-09-27T00:13:28Z</time></trkpt>
<trkpt lat="46.34791" lon="6.314884">
<ele>430</ele>
<time>2026-09-27T00:13:36Z</time></trkpt>
<trkpt lat="46.347821" lon="6.315024">
<ele>430</ele>
<time>2026-09-27T00:13:41Z</time></trkpt>
<trkpt lat="46.34777" lon="6.31508">
<ele>430</ele>
<time>2026-09-27T00:13:44Z</time></trkpt>
<trkpt lat="46.347654" lon="6.315159">
<ele>430</ele>
<time>2026-09-27T00:13:49Z</time></trkpt>
<trkpt lat="46.347528" lon="6.315189">
<ele>430</ele>
<time>2026-09-27T00:13:54Z</time></trkpt>
<trkpt lat="46.3474" lon="6.315168">
<ele>430</ele>
<time>2026-09-27T00:13:59Z</time></trkpt>
<trkpt lat="46.347" lon="6.31503">
<ele>430</ele>
<time>2026-09-27T00:14:16Z</time></trkpt>
<trkpt lat="46.346731" lon="6.314983">
<ele>430</ele>
<time>2026-09-27T00:14:27Z</time></trkpt>
<trkpt lat="46.346731" lon="6.314983">
<ele>430</ele>
<time>2026-09-27T00:14:27Z</time></trkpt>
<trkpt lat="46.346485" lon="6.314941">
<ele>430</ele>
<time>2026-09-27T00:14:37Z</time></trkpt>
<trkpt lat="46.346388" lon="6.314891">
<ele>430</ele>
<time>2026-09-27T00:14:41Z</time></trkpt>
<trkpt lat="46.346162" lon="6.314673">
<ele>429</ele>
<time>2026-09-27T00:14:52Z</time></trkpt>
<trkpt lat="46.346118" lon="6.314642">
<ele>429</ele>
<time>2026-09-27T00:14:53Z</time></trkpt>
<trkpt lat="46.346007" lon="6.314598">
<ele>429</ele>
<time>2026-09-27T00:14:58Z</time></trkpt>
<trkpt lat="46.345944" lon="6.314586">
<ele>428</ele>
<time>2026-09-27T00:15:01Z</time></trkpt>
<trkpt lat="46.345439" lon="6.314524">
<ele>427</ele>
<time>2026-09-27T00:15:21Z</time></trkpt>
<trkpt lat="46.34516" lon="6.314509">
<ele>426</ele>
<time>2026-09-27T00:15:32Z</time></trkpt>
<trkpt lat="46.344647" lon="6.314579">
<ele>425</ele>
<time>2026-09-27T00:15:53Z</time></trkpt>
<trkpt lat="46.344008" lon="6.314615">
<ele>425</ele>
<time>2026-09-27T00:16:18Z</time></trkpt>
<trkpt lat="46.343979" lon="6.314612">
<ele>425</ele>
<time>2026-09-27T00:16:20Z</time></trkpt>
<trkpt lat="46.343926" lon="6.314582">
<ele>425</ele>
<time>2026-09-27T00:16:22Z</time></trkpt>
<trkpt lat="46.343601" lon="6.314099">
<ele>427</ele>
<time>2026-09-27T00:16:41Z</time></trkpt>
<trkpt lat="46.343367" lon="6.313841">
<ele>427</ele>
<time>2026-09-27T00:16:52Z</time></trkpt>
<trkpt lat="46.343367" lon="6.313841">
<ele>427</ele>
<time>2026-09-27T00:16:52Z</time></trkpt>
<trkpt lat="46.34287" lon="6.313291">
<ele>428</ele>
<time>2026-09-27T00:17:17Z</time></trkpt>
<trkpt lat="46.342778" lon="6.313157">
<ele>429</ele>
<time>2026-09-27T00:17:23Z</time></trkpt>
<trkpt lat="46.34256" lon="6.312771">
<ele>430</ele>
<time>2026-09-27T00:17:36Z</time></trkpt>
<trkpt lat="46.34244" lon="6.312582">
<ele>430</ele>
<time>2026-09-27T00:17:43Z</time></trkpt>
<trkpt lat="46.341896" lon="6.311822">
<ele>430</ele>
<time>2026-09-27T00:18:14Z</time></trkpt>
<trkpt lat="46.341599" lon="6.311424">
<ele>430</ele>
<time>2026-09-27T00:18:30Z</time></trkpt>
<trkpt lat="46.341411" lon="6.311191">
<ele>430</ele>
<time>2026-09-27T00:18:40Z</time></trkpt>
<trkpt lat="46.341131" lon="6.310927">
<ele>430</ele>
<time>2026-09-27T00:18:53Z</time></trkpt>
<trkpt lat="46.341017" lon="6.310796">
<ele>430</ele>
<time>2026-09-27T00:18:59Z</time></trkpt>
<trkpt lat="46.340924" lon="6.310635">
<ele>430</ele>
<time>2026-09-27T00:19:05Z</time></trkpt>
<trkpt lat="46.340855" lon="6.31045">
<ele>430</ele>
<time>2026-09-27T00:19:11Z</time></trkpt>
<trkpt lat="46.340767" lon="6.310129">
<ele>430</ele>
<time>2026-09-27T00:19:20Z</time></trkpt>
<trkpt lat="46.340728" lon="6.309897">
<ele>430</ele>
<time>2026-09-27T00:19:27Z</time></trkpt>
<trkpt lat="46.340854" lon="6.31011">
<ele>430</ele>
<time>2026-09-27T00:19:35Z</time></trkpt>
<trkpt lat="46.340961" lon="6.31026">
<ele>430</ele>
<time>2026-09-27T00:19:41Z</time></trkpt>
<trkpt lat="46.341085" lon="6.310382">
<ele>430</ele>
<time>2026-09-27T00:19:47Z</time></trkpt>
<trkpt lat="46.341219" lon="6.310482">
<ele>430</ele>
<time>2026-09-27T00:19:53Z</time></trkpt>
<trkpt lat="46.341317" lon="6.310512">
<ele>430</ele>
<time>2026-09-27T00:19:57Z</time></trkpt>
<trkpt lat="46.341361" lon="6.31051">
<ele>430</ele>
<time>2026-09-27T00:19:58Z</time></trkpt>
<trkpt lat="46.341401" lon="6.310494">
<ele>430</ele>
<time>2026-09-27T00:20:00Z</time></trkpt>
<trkpt lat="46.341437" lon="6.310467">
<ele>430</ele>
<time>2026-09-27T00:20:02Z</time></trkpt>
<trkpt lat="46.341626" lon="6.310268">
<ele>430</ele>
<time>2026-09-27T00:20:11Z</time></trkpt>
<trkpt lat="46.341726" lon="6.31018">
<ele>430</ele>
<time>2026-09-27T00:20:16Z</time></trkpt>
<trkpt lat="46.341765" lon="6.310158">
<ele>430</ele>
<time>2026-09-27T00:20:17Z</time></trkpt>
<trkpt lat="46.341806" lon="6.310152">
<ele>430</ele>
<time>2026-09-27T00:20:19Z</time></trkpt>
<trkpt lat="46.341847" lon="6.310162">
<ele>430</ele>
<time>2026-09-27T00:20:21Z</time></trkpt>
<trkpt lat="46.342123" lon="6.310414">
<ele>430</ele>
<time>2026-09-27T00:20:34Z</time></trkpt>
<trkpt lat="46.342742" lon="6.310908">
<ele>428</ele>
<time>2026-09-27T00:21:02Z</time></trkpt>
<trkpt lat="46.342836" lon="6.310962">
<ele>428</ele>
<time>2026-09-27T00:21:06Z</time></trkpt>
<trkpt lat="46.342886" lon="6.310978">
<ele>428</ele>
<time>2026-09-27T00:21:08Z</time></trkpt>
<trkpt lat="46.343262" lon="6.311005">
<ele>429</ele>
<time>2026-09-27T00:21:23Z</time></trkpt>
<trkpt lat="46.343457" lon="6.310992">
<ele>429</ele>
<time>2026-09-27T00:21:31Z</time></trkpt>
<trkpt lat="46.343507" lon="6.310967">
<ele>428</ele>
<time>2026-09-27T00:21:33Z</time></trkpt>
<trkpt lat="46.343539" lon="6.310939">
<ele>428</ele>
<time>2026-09-27T00:21:35Z</time></trkpt>
<trkpt lat="46.343539" lon="6.310939">
<ele>428</ele>
<time>2026-09-27T00:21:35Z</time></trkpt>
<trkpt lat="46.343709" lon="6.310755">
<ele>427</ele>
<time>2026-09-27T00:21:43Z</time></trkpt>
<trkpt lat="46.343781" lon="6.310703">
<ele>427</ele>
<time>2026-09-27T00:21:47Z</time></trkpt>
<trkpt lat="46.34386" lon="6.310689">
<ele>426</ele>
<time>2026-09-27T00:21:50Z</time></trkpt>
<trkpt lat="46.344084" lon="6.310704">
<ele>425</ele>
<time>2026-09-27T00:21:59Z</time></trkpt>
<trkpt lat="46.344234" lon="6.310793">
<ele>425</ele>
<time>2026-09-27T00:22:05Z</time></trkpt>
<trkpt lat="46.344363" lon="6.310856">
<ele>425</ele>
<time>2026-09-27T00:22:11Z</time></trkpt>
<trkpt lat="46.344429" lon="6.310884">
<ele>425</ele>
<time>2026-09-27T00:22:13Z</time></trkpt>
<trkpt lat="46.344561" lon="6.310919">
<ele>425</ele>
<time>2026-09-27T00:22:19Z</time></trkpt>
<trkpt lat="46.344747" lon="6.310927">
<ele>425</ele>
<time>2026-09-27T00:22:26Z</time></trkpt>
<trkpt lat="46.345222" lon="6.310866">
<ele>425</ele>
<time>2026-09-27T00:22:45Z</time></trkpt>
<trkpt lat="46.345342" lon="6.310829">
<ele>425</ele>
<time>2026-09-27T00:22:50Z</time></trkpt>
<trkpt lat="46.345457" lon="6.310771">
<ele>425</ele>
<time>2026-09-27T00:22:55Z</time></trkpt>
<trkpt lat="46.346346" lon="6.310134">
<ele>430</ele>
<time>2026-09-27T00:23:35Z</time></trkpt>
<trkpt lat="46.347108" lon="6.30948">
<ele>430</ele>
<time>2026-09-27T00:24:10Z</time></trkpt>
<trkpt lat="46.347108" lon="6.30948">
<ele>430</ele>
<time>2026-09-27T00:24:10Z</time></trkpt>
<trkpt lat="46.347484" lon="6.309195">
<ele>430</ele>
<time>2026-09-27T00:24:27Z</time></trkpt>
<trkpt lat="46.347719" lon="6.309042">
<ele>430</ele>
<time>2026-09-27T00:24:38Z</time></trkpt>
<trkpt lat="46.348887" lon="6.308342">
<ele>430</ele>
<time>2026-09-27T00:25:28Z</time></trkpt>
<trkpt lat="46.349191" lon="6.308187">
<ele>430</ele>
<time>2026-09-27T00:25:41Z</time></trkpt>
<trkpt lat="46.349285" lon="6.308152">
<ele>430</ele>
<time>2026-09-27T00:25:45Z</time></trkpt>
<trkpt lat="46.349479" lon="6.308114">
<ele>429</ele>
<time>2026-09-27T00:25:53Z</time></trkpt>
<trkpt lat="46.349493" lon="6.308233">
<ele>430</ele>
<time>2026-09-27T00:25:56Z</time></trkpt>
<trkpt lat="46.350034" lon="6.311013">
<ele>431</ele>
<time>2026-09-27T00:27:16Z</time></trkpt>
<trkpt lat="46.350154" lon="6.311438">
<ele>432</ele>
<time>2026-09-27T00:27:29Z</time></trkpt>
<trkpt lat="46.350228" lon="6.311651">
<ele>432</ele>
<time>2026-09-27T00:27:36Z</time></trkpt>
<trkpt lat="46.350348" lon="6.311957">
<ele>432</ele>
<time>2026-09-27T00:27:45Z</time></trkpt>
<trkpt lat="46.350467" lon="6.312189">
<ele>433</ele>
<time>2026-09-27T00:27:53Z</time></trkpt>
<trkpt lat="46.350855" lon="6.312869">
<ele>434</ele>
<time>2026-09-27T00:28:18Z</time></trkpt>
<trkpt lat="46.350957" lon="6.313099">
<ele>434</ele>
<time>2026-09-27T00:28:25Z</time></trkpt>
<trkpt lat="46.350982" lon="6.313187">
<ele>434</ele>
<time>2026-09-27T00:28:28Z</time></trkpt>
<trkpt lat="46.35101" lon="6.313373">
<ele>435</ele>
<time>2026-09-27T00:28:33Z</time></trkpt>
<trkpt lat="46.350999" lon="6.313747">
<ele>437</ele>
<time>2026-09-27T00:28:44Z</time></trkpt>
<trkpt lat="46.350999" lon="6.313747">
<ele>437</ele>
<time>2026-09-27T00:28:44Z</time></trkpt>
<trkpt lat="46.350995" lon="6.314104">
<ele>438</ele>
<time>2026-09-27T00:28:53Z</time></trkpt>
<trkpt lat="46.351013" lon="6.314326">
<ele>439</ele>
<time>2026-09-27T00:29:00Z</time></trkpt>
<trkpt lat="46.351031" lon="6.314406">
<ele>439</ele>
<time>2026-09-27T00:29:02Z</time></trkpt>
<trkpt lat="46.351058" lon="6.314481">
<ele>438</ele>
<time>2026-09-27T00:29:04Z</time></trkpt>
<trkpt lat="46.351204" lon="6.314746">
<ele>439</ele>
<time>2026-09-27T00:29:14Z</time></trkpt>
<trkpt lat="46.351223" lon="6.314814">
<ele>439</ele>
<time>2026-09-27T00:29:16Z</time></trkpt>
<trkpt lat="46.351223" lon="6.314851">
<ele>439</ele>
<time>2026-09-27T00:29:17Z</time></trkpt>
<trkpt lat="46.351201" lon="6.314943">
<ele>439</ele>
<time>2026-09-27T00:29:19Z</time></trkpt>
<trkpt lat="46.351057" lon="6.315286">
<ele>440</ele>
<time>2026-09-27T00:29:31Z</time></trkpt>
<trkpt lat="46.351035" lon="6.315355">
<ele>440</ele>
<time>2026-09-27T00:29:33Z</time></trkpt>
<trkpt lat="46.351017" lon="6.315429">
<ele>439</ele>
<time>2026-09-27T00:29:35Z</time></trkpt>
<trkpt lat="46.350997" lon="6.315578">
<ele>439</ele>
<time>2026-09-27T00:29:39Z</time></trkpt>
<trkpt lat="46.351255" lon="6.31579">
<ele>440</ele>
<time>2026-09-27T00:29:51Z</time></trkpt>
<trkpt lat="46.35147" lon="6.315926">
<ele>440</ele>
<time>2026-09-27T00:30:00Z</time></trkpt>
<trkpt lat="46.351729" lon="6.316071">
<ele>439</ele>
<time>2026-09-27T00:30:11Z</time></trkpt>
<trkpt lat="46.351803" lon="6.316127">
<ele>439</ele>
<time>2026-09-27T00:30:15Z</time></trkpt>
<trkpt lat="46.351866" lon="6.316184">
<ele>439</ele>
<time>2026-09-27T00:30:18Z</time></trkpt>
<trkpt lat="46.351914" lon="6.316247">
<ele>439</ele>
<time>2026-09-27T00:30:20Z</time></trkpt>
<trkpt lat="46.351953" lon="6.316321">
<ele>440</ele>
<time>2026-09-27T00:30:23Z</time></trkpt>
<trkpt lat="46.351982" lon="6.316405">
<ele>440</ele>
<time>2026-09-27T00:30:25Z</time></trkpt>
<trkpt lat="46.352062" lon="6.316714">
<ele>440</ele>
<time>2026-09-27T00:30:35Z</time></trkpt>
<trkpt lat="46.352062" lon="6.316714">
<ele>440</ele>
<time>2026-09-27T00:30:35Z</time></trkpt>
<trkpt lat="46.352121" lon="6.316891">
<ele>440</ele>
<time>2026-09-27T00:30:40Z</time></trkpt>
<trkpt lat="46.352193" lon="6.316999">
<ele>440</ele>
<time>2026-09-27T00:30:44Z</time></trkpt>
<trkpt lat="46.352271" lon="6.317083">
<ele>441</ele>
<time>2026-09-27T00:30:48Z</time></trkpt>
<trkpt lat="46.352659" lon="6.317402">
<ele>443</ele>
<time>2026-09-27T00:31:06Z</time></trkpt>
<trkpt lat="46.352707" lon="6.317461">
<ele>443</ele>
<time>2026-09-27T00:31:09Z</time></trkpt>
<trkpt lat="46.352749" lon="6.317534">
<ele>444</ele>
<time>2026-09-27T00:31:11Z</time></trkpt>
<trkpt lat="46.352803" lon="6.31751">
<ele>444</ele>
<time>2026-09-27T00:31:13Z</time></trkpt>
<trkpt lat="46.352916" lon="6.31754">
<ele>445</ele>
<time>2026-09-27T00:31:18Z</time></trkpt>
<trkpt lat="46.353342" lon="6.317969">
<ele>448</ele>
<time>2026-09-27T00:31:39Z</time></trkpt>
<trkpt lat="46.353366" lon="6.318023">
<ele>448</ele>
<time>2026-09-27T00:31:41Z</time></trkpt>
<trkpt lat="46.353363" lon="6.318066">
<ele>448</ele>
<time>2026-09-27T00:31:42Z</time></trkpt>
<trkpt lat="46.353175" lon="6.318691">
<ele>449</ele>
<time>2026-09-27T00:32:01Z</time></trkpt>
<trkpt lat="46.353146" lon="6.318851">
<ele>449</ele>
<time>2026-09-27T00:32:05Z</time></trkpt>
<trkpt lat="46.353146" lon="6.318851">
<ele>449</ele>
<time>2026-09-27T00:32:05Z</time></trkpt>
<trkpt lat="46.353135" lon="6.319098">
<ele>449</ele>
<time>2026-09-27T00:32:12Z</time></trkpt>
<trkpt lat="46.353155" lon="6.319383">
<ele>450</ele>
<time>2026-09-27T00:32:20Z</time></trkpt>
<trkpt lat="46.353146" lon="6.319512">
<ele>450</ele>
<time>2026-09-27T00:32:24Z</time></trkpt>
<trkpt lat="46.353007" lon="6.320072">
<ele>450</ele>
<time>2026-09-27T00:32:40Z</time></trkpt>
<trkpt lat="46.352994" lon="6.32005">
<ele>450</ele>
<time>2026-09-27T00:32:41Z</time></trkpt>
<trkpt lat="46.35296" lon="6.320025">
<ele>450</ele>
<time>2026-09-27T00:32:42Z</time></trkpt>
<trkpt lat="46.3526" lon="6.319846">
<ele>448</ele>
<time>2026-09-27T00:32:58Z</time></trkpt>
<trkpt lat="46.352496" lon="6.31982">
<ele>447</ele>
<time>2026-09-27T00:33:02Z</time></trkpt>
<trkpt lat="46.352378" lon="6.319836">
<ele>446</ele>
<time>2026-09-27T00:33:07Z</time></trkpt>
<trkpt lat="46.351723" lon="6.320018">
<ele>441</ele>
<time>2026-09-27T00:33:33Z</time></trkpt>
<trkpt lat="46.351681" lon="6.31971">
<ele>440</ele>
<time>2026-09-27T00:33:42Z</time></trkpt>
<trkpt lat="46.351674" lon="6.319633">
<ele>440</ele>
<time>2026-09-27T00:33:44Z</time></trkpt>
<trkpt lat="46.351675" lon="6.319479">
<ele>440</ele>
<time>2026-09-27T00:33:48Z</time></trkpt>
<trkpt lat="46.351569" lon="6.319515">
<ele>439</ele>
<time>2026-09-27T00:33:53Z</time></trkpt>
<trkpt lat="46.351117" lon="6.319809">
<ele>436</ele>
<time>2026-09-27T00:34:13Z</time></trkpt>
<trkpt lat="46.351117" lon="6.319809">
<ele>436</ele>
<time>2026-09-27T00:34:13Z</time></trkpt>
<trkpt lat="46.350262" lon="6.320364">
<ele>434</ele>
<time>2026-09-27T00:34:50Z</time></trkpt>
<trkpt lat="46.350113" lon="6.320452">
<ele>434</ele>
<time>2026-09-27T00:34:57Z</time></trkpt>
<trkpt lat="46.349959" lon="6.320526">
<ele>434</ele>
<time>2026-09-27T00:35:03Z</time></trkpt>
<trkpt lat="46.34925" lon="6.320827">
<ele>433</ele>
<time>2026-09-27T00:35:33Z</time></trkpt>
<trkpt lat="46.349081" lon="6.320885">
<ele>433</ele>
<time>2026-09-27T00:35:40Z</time></trkpt>
<trkpt lat="46.348646" lon="6.32101">
<ele>433</ele>
<time>2026-09-27T00:35:57Z</time></trkpt>
<trkpt lat="46.34836" lon="6.321153">
<ele>433</ele>
<time>2026-09-27T00:36:10Z</time></trkpt>
<trkpt lat="46.348258" lon="6.321177">
<ele>433</ele>
<time>2026-09-27T00:36:14Z</time></trkpt>
<trkpt lat="46.348206" lon="6.321172">
<ele>433</ele>
<time>2026-09-27T00:36:16Z</time></trkpt>
<trkpt lat="46.348106" lon="6.321129">
<ele>433</ele>
<time>2026-09-27T00:36:20Z</time></trkpt>
<trkpt lat="46.34802" lon="6.321044">
<ele>433</ele>
<time>2026-09-27T00:36:24Z</time></trkpt>
<trkpt lat="46.347641" lon="6.320364">
<ele>431</ele>
<time>2026-09-27T00:36:48Z</time></trkpt>
<trkpt lat="46.347555" lon="6.32023">
<ele>431</ele>
<time>2026-09-27T00:36:53Z</time></trkpt>
<trkpt lat="46.347515" lon="6.320186">
<ele>431</ele>
<time>2026-09-27T00:36:55Z</time></trkpt>
<trkpt lat="46.347423" lon="6.320126">
<ele>431</ele>
<time>2026-09-27T00:36:59Z</time></trkpt>
<trkpt lat="46.347164" lon="6.320017">
<ele>431</ele>
<time>2026-09-27T00:37:10Z</time></trkpt>
<trkpt lat="46.347094" lon="6.319973">
<ele>431</ele>
<time>2026-09-27T00:37:13Z</time></trkpt>
<trkpt lat="46.346966" lon="6.319856">
<ele>431</ele>
<time>2026-09-27T00:37:19Z</time></trkpt>
<trkpt lat="46.34677" lon="6.31964">
<ele>431</ele>
<time>2026-09-27T00:37:29Z</time></trkpt>
<trkpt lat="46.3467" lon="6.319594">
<ele>431</ele>
<time>2026-09-27T00:37:32Z</time></trkpt>
<trkpt lat="46.346612" lon="6.319565">
<ele>430</ele>
<time>2026-09-27T00:37:36Z</time></trkpt>
<trkpt lat="46.346573" lon="6.319538">
<ele>430</ele>
<time>2026-09-27T00:37:38Z</time></trkpt>
<trkpt lat="46.346548" lon="6.319484">
<ele>430</ele>
<time>2026-09-27T00:37:39Z</time></trkpt>
<trkpt lat="46.346544" lon="6.319452">
<ele>430</ele>
<time>2026-09-27T00:37:40Z</time></trkpt>
<trkpt lat="46.346598" lon="6.31905">
<ele>430</ele>
<time>2026-09-27T00:37:52Z</time></trkpt>
<trkpt lat="46.346604" lon="6.318944">
<ele>430</ele>
<time>2026-09-27T00:37:55Z</time></trkpt>
<trkpt lat="46.346596" lon="6.318587">
<ele>430</ele>
<time>2026-09-27T00:38:05Z</time></trkpt>
<trkpt lat="46.346616" lon="6.318468">
<ele>430</ele>
<time>2026-09-27T00:38:08Z</time></trkpt>
<trkpt lat="46.34666" lon="6.318363">
<ele>430</ele>
<time>2026-09-27T00:38:11Z</time></trkpt>
<trkpt lat="46.347055" lon="6.317839">
<ele>430</ele>
<time>2026-09-27T00:38:33Z</time></trkpt>
<trkpt lat="46.347328" lon="6.317437">
<ele>430</ele>
<time>2026-09-27T00:38:48Z</time></trkpt>
<trkpt lat="46.347542" lon="6.317164">
<ele>430</ele>
<time>2026-09-27T00:39:00Z</time></trkpt>
<trkpt lat="46.347898" lon="6.316771">
<ele>431</ele>
<time>2026-09-27T00:39:18Z</time></trkpt>
<trkpt lat="46.347898" lon="6.31677">
<ele>431</ele>
<time>2026-09-27T00:39:18Z</time></trkpt>
<trkpt lat="46.348203" lon="6.316405">
<ele>433</ele>
<time>2026-09-27T00:39:34Z</time></trkpt>
<trkpt lat="46.348443" lon="6.31601">
<ele>434</ele>
<time>2026-09-27T00:39:48Z</time></trkpt>
<trkpt lat="46.348624" lon="6.315761">
<ele>435</ele>
<time>2026-09-27T00:39:58Z</time></trkpt>
<trkpt lat="46.348826" lon="6.31552">
<ele>437</ele>
<time>2026-09-27T00:40:09Z</time></trkpt>
<trkpt lat="46.348937" lon="6.315423">
<ele>438</ele>
<time>2026-09-27T00:40:14Z</time></trkpt>
<trkpt lat="46.349116" lon="6.315315">
<ele>439</ele>
<time>2026-09-27T00:40:22Z</time></trkpt>
<trkpt lat="46.349342" lon="6.315254">
<ele>439</ele>
<time>2026-09-27T00:40:31Z</time></trkpt>
<trkpt lat="46.349378" lon="6.315226">
<ele>439</ele>
<time>2026-09-27T00:40:32Z</time></trkpt>
<trkpt lat="46.349413" lon="6.315144">
<ele>439</ele>
<time>2026-09-27T00:40:35Z</time></trkpt>
<trkpt lat="46.349468" lon="6.314892">
<ele>437</ele>
<time>2026-09-27T00:40:42Z</time></trkpt>
<trkpt lat="46.349485" lon="6.314855">
<ele>436</ele>
<time>2026-09-27T00:40:44Z</time></trkpt>
<trkpt lat="46.349511" lon="6.31482">
<ele>436</ele>
<time>2026-09-27T00:40:45Z</time></trkpt>
<trkpt lat="46.349555" lon="6.314788">
<ele>436</ele>
<time>2026-09-27T00:40:47Z</time></trkpt>
<trkpt lat="46.349632" lon="6.31476">
<ele>435</ele>
<time>2026-09-27T00:40:50Z</time></trkpt>
<trkpt lat="46.349238" lon="6.314481">
<ele>434</ele>
<time>2026-09-27T00:41:08Z</time></trkpt>
<trkpt lat="46.349079" lon="6.314384">
<ele>433</ele>
<time>2026-09-27T00:41:15Z</time></trkpt>
<trkpt lat="46.349008" lon="6.314352">
<ele>433</ele>
<time>2026-09-27T00:41:18Z</time></trkpt>
<trkpt lat="46.348862" lon="6.314312">
<ele>432</ele>
<time>2026-09-27T00:41:24Z</time></trkpt>
<trkpt lat="46.348787" lon="6.314306">
<ele>432</ele>
<time>2026-09-27T00:41:27Z</time></trkpt>
<trkpt lat="46.348493" lon="6.314344">
<ele>430</ele>
<time>2026-09-27T00:41:39Z</time></trkpt>
<trkpt lat="46.348299" lon="6.314404">
<ele>430</ele>
<time>2026-09-27T00:41:46Z</time></trkpt>
<trkpt lat="46.348215" lon="6.314449">
<ele>430</ele>
<time>2026-09-27T00:41:50Z</time></trkpt>
<trkpt lat="46.348148" lon="6.314506">
<ele>430</ele>
<time>2026-09-27T00:41:53Z</time></trkpt>
<trkpt lat="46.348086" lon="6.314575">
<ele>430</ele>
<time>2026-09-27T00:41:56Z</time></trkpt>
<trkpt lat="46.348037" lon="6.31465">
<ele>430</ele>
<time>2026-09-27T00:41:59Z</time></trkpt>
<trkpt lat="46.34791" lon="6.314884">
<ele>430</ele>
<time>2026-09-27T00:42:07Z</time></trkpt>
<trkpt lat="46.347821" lon="6.315024">
<ele>430</ele>
<time>2026-09-27T00:42:13Z</time></trkpt>
<trkpt lat="46.34777" lon="6.31508">
<ele>430</ele>
<time>2026-09-27T00:42:15Z</time></trkpt>
<trkpt lat="46.347654" lon="6.315159">
<ele>430</ele>
<time>2026-09-27T00:42:20Z</time></trkpt>
<trkpt lat="46.347528" lon="6.315189">
<ele>430</ele>
<time>2026-09-27T00:42:25Z</time></trkpt>
<trkpt lat="46.3474" lon="6.315168">
<ele>430</ele>
<time>2026-09-27T00:42:31Z</time></trkpt>
<trkpt lat="46.347" lon="6.31503">
<ele>430</ele>
<time>2026-09-27T00:42:47Z</time></trkpt>
<trkpt lat="46.346795" lon="6.314994">
<ele>430</ele>
<time>2026-09-27T00:42:55Z</time></trkpt>
<trkpt lat="46.346795" lon="6.314994">
<ele>430</ele>
<time>2026-09-27T00:42:55Z</time></trkpt>
<trkpt lat="46.346485" lon="6.314941">
<ele>430</ele>
<time>2026-09-27T00:43:08Z</time></trkpt>
<trkpt lat="46.346388" lon="6.314891">
<ele>430</ele>
<time>2026-09-27T00:43:12Z</time></trkpt>
<trkpt lat="46.346162" lon="6.314673">
<ele>429</ele>
<time>2026-09-27T00:43:23Z</time></trkpt>
<trkpt lat="46.346118" lon="6.314642">
<ele>429</ele>
<time>2026-09-27T00:43:25Z</time></trkpt>
<trkpt lat="46.346007" lon="6.314598">
<ele>429</ele>
<time>2026-09-27T00:43:30Z</time></trkpt>
<trkpt lat="46.345944" lon="6.314586">
<ele>428</ele>
<time>2026-09-27T00:43:32Z</time></trkpt>
<trkpt lat="46.345439" lon="6.314524">
<ele>427</ele>
<time>2026-09-27T00:43:52Z</time></trkpt>
<trkpt lat="46.34516" lon="6.314509">
<ele>426</ele>
<time>2026-09-27T00:44:04Z</time></trkpt>
<trkpt lat="46.344647" lon="6.314579">
<ele>425</ele>
<time>2026-09-27T00:44:24Z</time></trkpt>
<trkpt lat="46.344008" lon="6.314615">
<ele>425</ele>
<time>2026-09-27T00:44:50Z</time></trkpt>
<trkpt lat="46.343979" lon="6.314612">
<ele>425</ele>
<time>2026-09-27T00:44:51Z</time></trkpt>
<trkpt lat="46.343926" lon="6.314582">
<ele>425</ele>
<time>2026-09-27T00:44:53Z</time></trkpt>
<trkpt lat="46.343601" lon="6.314099">
<ele>427</ele>
<time>2026-09-27T00:45:12Z</time></trkpt>
<trkpt lat="46.34287" lon="6.313291">
<ele>428</ele>
<time>2026-09-27T00:45:49Z</time></trkpt>
<trkpt lat="46.342778" lon="6.313157">
<ele>429</ele>
<time>2026-09-27T00:45:54Z</time></trkpt>
<trkpt lat="46.34256" lon="6.312771">
<ele>430</ele>
<time>2026-09-27T00:46:08Z</time></trkpt>
<trkpt lat="46.34244" lon="6.312582">
<ele>430</ele>
<time>2026-09-27T00:46:15Z</time></trkpt>
<trkpt lat="46.341896" lon="6.311822">
<ele>430</ele>
<time>2026-09-27T00:46:45Z</time></trkpt>
<trkpt lat="46.341599" lon="6.311424">
<ele>430</ele>
<time>2026-09-27T00:47:01Z</time></trkpt>
<trkpt lat="46.341411" lon="6.311191">
<ele>430</ele>
<time>2026-09-27T00:47:11Z</time></trkpt>
<trkpt lat="46.341131" lon="6.310927">
<ele>430</ele>
<time>2026-09-27T00:47:25Z</time></trkpt>
<trkpt lat="46.341017" lon="6.310796">
<ele>430</ele>
<time>2026-09-27T00:47:31Z</time></trkpt>
<trkpt lat="46.340924" lon="6.310635">
<ele>430</ele>
<time>2026-09-27T00:47:36Z</time></trkpt>
<trkpt lat="46.340855" lon="6.31045">
<ele>430</ele>
<time>2026-09-27T00:47:42Z</time></trkpt>
<trkpt lat="46.340767" lon="6.310129">
<ele>430</ele>
<time>2026-09-27T00:47:52Z</time></trkpt>
<trkpt lat="46.340728" lon="6.309897">
<ele>430</ele>
<time>2026-09-27T00:47:58Z</time></trkpt>
<trkpt lat="46.340854" lon="6.31011">
<ele>430</ele>
<time>2026-09-27T00:48:06Z</time></trkpt>
<trkpt lat="46.340961" lon="6.31026">
<ele>430</ele>
<time>2026-09-27T00:48:12Z</time></trkpt>
<trkpt lat="46.341085" lon="6.310382">
<ele>430</ele>
<time>2026-09-27T00:48:18Z</time></trkpt>
<trkpt lat="46.341219" lon="6.310482">
<ele>430</ele>
<time>2026-09-27T00:48:24Z</time></trkpt>
<trkpt lat="46.341317" lon="6.310512">
<ele>430</ele>
<time>2026-09-27T00:48:28Z</time></trkpt>
<trkpt lat="46.341361" lon="6.31051">
<ele>430</ele>
<time>2026-09-27T00:48:30Z</time></trkpt>
<trkpt lat="46.341401" lon="6.310494">
<ele>430</ele>
<time>2026-09-27T00:48:32Z</time></trkpt>
<trkpt lat="46.341437" lon="6.310467">
<ele>430</ele>
<time>2026-09-27T00:48:33Z</time></trkpt>
<trkpt lat="46.341626" lon="6.310268">
<ele>430</ele>
<time>2026-09-27T00:48:43Z</time></trkpt>
<trkpt lat="46.341726" lon="6.31018">
<ele>430</ele>
<time>2026-09-27T00:48:47Z</time></trkpt>
<trkpt lat="46.341765" lon="6.310158">
<ele>430</ele>
<time>2026-09-27T00:48:49Z</time></trkpt>
<trkpt lat="46.341806" lon="6.310152">
<ele>430</ele>
<time>2026-09-27T00:48:51Z</time></trkpt>
<trkpt lat="46.341847" lon="6.310162">
<ele>430</ele>
<time>2026-09-27T00:48:52Z</time></trkpt>
<trkpt lat="46.342123" lon="6.310414">
<ele>430</ele>
<time>2026-09-27T00:49:05Z</time></trkpt>
<trkpt lat="46.342742" lon="6.310908">
<ele>428</ele>
<time>2026-09-27T00:49:34Z</time></trkpt>
<trkpt lat="46.342836" lon="6.310962">
<ele>428</ele>
<time>2026-09-27T00:49:38Z</time></trkpt>
<trkpt lat="46.342886" lon="6.310978">
<ele>428</ele>
<time>2026-09-27T00:49:40Z</time></trkpt>
<trkpt lat="46.343262" lon="6.311005">
<ele>429</ele>
<time>2026-09-27T00:49:55Z</time></trkpt>
<trkpt lat="46.343457" lon="6.310992">
<ele>429</ele>
<time>2026-09-27T00:50:03Z</time></trkpt>
<trkpt lat="46.343507" lon="6.310967">
<ele>428</ele>
<time>2026-09-27T00:50:05Z</time></trkpt>
<trkpt lat="46.343552" lon="6.310927">
<ele>428</ele>
<time>2026-09-27T00:50:07Z</time></trkpt>
<trkpt lat="46.343709" lon="6.310755">
<ele>427</ele>
<time>2026-09-27T00:50:15Z</time></trkpt>
<trkpt lat="46.343781" lon="6.310703">
<ele>427</ele>
<time>2026-09-27T00:50:18Z</time></trkpt>
<trkpt lat="46.34386" lon="6.310689">
<ele>426</ele>
<time>2026-09-27T00:50:21Z</time></trkpt>
<trkpt lat="46.344084" lon="6.310704">
<ele>425</ele>
<time>2026-09-27T00:50:30Z</time></trkpt>
<trkpt lat="46.344234" lon="6.310793">
<ele>425</ele>
<time>2026-09-27T00:50:37Z</time></trkpt>
<trkpt lat="46.344363" lon="6.310856">
<ele>425</ele>
<time>2026-09-27T00:50:42Z</time></trkpt>
<trkpt lat="46.344429" lon="6.310884">
<ele>425</ele>
<time>2026-09-27T00:50:45Z</time></trkpt>
<trkpt lat="46.344561" lon="6.310919">
<ele>425</ele>
<time>2026-09-27T00:50:50Z</time></trkpt>
<trkpt lat="46.344789" lon="6.310921">
<ele>425</ele>
<time>2026-09-27T00:50:59Z</time></trkpt>
<trkpt lat="46.344789" lon="6.310921">
<ele>425</ele>
<time>2026-09-27T00:50:59Z</time></trkpt>
<trkpt lat="46.345222" lon="6.310866">
<ele>425</ele>
<time>2026-09-27T00:51:17Z</time></trkpt>
<trkpt lat="46.345342" lon="6.310829">
<ele>425</ele>
<time>2026-09-27T00:51:22Z</time></trkpt>
<trkpt lat="46.345457" lon="6.310771">
<ele>425</ele>
<time>2026-09-27T00:51:27Z</time></trkpt>
<trkpt lat="46.346346" lon="6.310134">
<ele>430</ele>
<time>2026-09-27T00:52:06Z</time></trkpt>
<trkpt lat="46.346984" lon="6.30958">
<ele>430</ele>
<time>2026-09-27T00:52:36Z</time></trkpt>
<trkpt lat="46.347254" lon="6.309363">
<ele>430</ele>
<time>2026-09-27T00:52:49Z</time></trkpt>
<trkpt lat="46.347484" lon="6.309195">
<ele>430</ele>
<time>2026-09-27T00:52:59Z</time></trkpt>
<trkpt lat="46.347719" lon="6.309042">
<ele>430</ele>
<time>2026-09-27T00:53:09Z</time></trkpt>
<trkpt lat="46.348887" lon="6.308342">
<ele>430</ele>
<time>2026-09-27T00:54:00Z</time></trkpt>
<trkpt lat="46.349191" lon="6.308187">
<ele>430</ele>
<time>2026-09-27T00:54:13Z</time></trkpt>
<trkpt lat="46.349285" lon="6.308152">
<ele>430</ele>
<time>2026-09-27T00:54:17Z</time></trkpt>
<trkpt lat="46.349479" lon="6.308114">
<ele>429</ele>
<time>2026-09-27T00:54:24Z</time></trkpt>
<trkpt lat="46.349493" lon="6.308233">
<ele>430</ele>
<time>2026-09-27T00:54:28Z</time></trkpt>
<trkpt lat="46.34989" lon="6.310277">
<ele>430</ele>
<time>2026-09-27T00:55:27Z</time></trkpt>
<trkpt lat="46.34989" lon="6.310277">
<ele>430</ele>
<time>2026-09-27T00:55:27Z</time></trkpt>
<trkpt lat="46.350034" lon="6.311013">
<ele>431</ele>
<time>2026-09-27T00:55:48Z</time></trkpt>
<trkpt lat="46.350154" lon="6.311438">
<ele>432</ele>
<time>2026-09-27T00:56:00Z</time></trkpt>
<trkpt lat="46.350228" lon="6.311651">
<ele>432</ele>
<time>2026-09-27T00:56:07Z</time></trkpt>
<trkpt lat="46.350348" lon="6.311957">
<ele>432</ele>
<time>2026-09-27T00:56:17Z</time></trkpt>
<trkpt lat="46.350467" lon="6.312189">
<ele>433</ele>
<time>2026-09-27T00:56:25Z</time></trkpt>
<trkpt lat="46.350855" lon="6.312869">
<ele>434</ele>
<time>2026-09-27T00:56:49Z</time></trkpt>
<trkpt lat="46.350957" lon="6.313099">
<ele>434</ele>
<time>2026-09-27T00:56:57Z</time></trkpt>
<trkpt lat="46.350982" lon="6.313187">
<ele>434</ele>
<time>2026-09-27T00:56:59Z</time></trkpt>
<trkpt lat="46.35101" lon="6.313373">
<ele>435</ele>
<time>2026-09-27T00:57:05Z</time></trkpt>
<trkpt lat="46.350993" lon="6.313963">
<ele>438</ele>
<time>2026-09-27T00:57:21Z</time></trkpt>
<trkpt lat="46.350995" lon="6.314104">
<ele>438</ele>
<time>2026-09-27T00:57:25Z</time></trkpt>
<trkpt lat="46.351013" lon="6.314326">
<ele>439</ele>
<time>2026-09-27T00:57:31Z</time></trkpt>
<trkpt lat="46.351031" lon="6.314406">
<ele>439</ele>
<time>2026-09-27T00:57:33Z</time></trkpt>
<trkpt lat="46.351058" lon="6.314481">
<ele>438</ele>
<time>2026-09-27T00:57:36Z</time></trkpt>
<trkpt lat="46.351204" lon="6.314746">
<ele>439</ele>
<time>2026-09-27T00:57:45Z</time></trkpt>
<trkpt lat="46.351223" lon="6.314814">
<ele>439</ele>
<time>2026-09-27T00:57:47Z</time></trkpt>
<trkpt lat="46.351223" lon="6.314851">
<ele>439</ele>
<time>2026-09-27T00:57:48Z</time></trkpt>
<trkpt lat="46.351201" lon="6.314943">
<ele>439</ele>
<time>2026-09-27T00:57:51Z</time></trkpt>
<trkpt lat="46.351057" lon="6.315286">
<ele>440</ele>
<time>2026-09-27T00:58:02Z</time></trkpt>
<trkpt lat="46.351035" lon="6.315355">
<ele>440</ele>
<time>2026-09-27T00:58:04Z</time></trkpt>
<trkpt lat="46.351017" lon="6.315429">
<ele>439</ele>
<time>2026-09-27T00:58:06Z</time></trkpt>
<trkpt lat="46.350997" lon="6.315578">
<ele>439</ele>
<time>2026-09-27T00:58:10Z</time></trkpt>
<trkpt lat="46.351255" lon="6.31579">
<ele>440</ele>
<time>2026-09-27T00:58:22Z</time></trkpt>
<trkpt lat="46.35147" lon="6.315926">
<ele>440</ele>
<time>2026-09-27T00:58:32Z</time></trkpt>
<trkpt lat="46.351729" lon="6.316071">
<ele>439</ele>
<time>2026-09-27T00:58:43Z</time></trkpt>
<trkpt lat="46.351803" lon="6.316127">
<ele>439</ele>
<time>2026-09-27T00:58:46Z</time></trkpt>
<trkpt lat="46.35188" lon="6.316202">
<ele>439</ele>
<time>2026-09-27T00:58:50Z</time></trkpt>
<trkpt lat="46.35188" lon="6.316202">
<ele>439</ele>
<time>2026-09-27T00:58:50Z</time></trkpt>
<trkpt lat="46.351914" lon="6.316247">
<ele>439</ele>
<time>2026-09-27T00:58:52Z</time></trkpt>
<trkpt lat="46.351953" lon="6.316321">
<ele>440</ele>
<time>2026-09-27T00:58:54Z</time></trkpt>
<trkpt lat="46.351982" lon="6.316405">
<ele>440</ele>
<time>2026-09-27T00:58:57Z</time></trkpt>
<trkpt lat="46.352066" lon="6.316732">
<ele>440</ele>
<time>2026-09-27T00:59:07Z</time></trkpt>
<trkpt lat="46.352121" lon="6.316891">
<ele>440</ele>
<time>2026-09-27T00:59:11Z</time></trkpt>
<trkpt lat="46.352193" lon="6.316999">
<ele>440</ele>
<time>2026-09-27T00:59:16Z</time></trkpt>
<trkpt lat="46.352271" lon="6.317083">
<ele>441</ele>
<time>2026-09-27T00:59:20Z</time></trkpt>
<trkpt lat="46.352659" lon="6.317402">
<ele>443</ele>
<time>2026-09-27T00:59:37Z</time></trkpt>
<trkpt lat="46.352707" lon="6.317461">
<ele>443</ele>
<time>2026-09-27T00:59:40Z</time></trkpt>
<trkpt lat="46.352749" lon="6.317534">
<ele>444</ele>
<time>2026-09-27T00:59:43Z</time></trkpt>
<trkpt lat="46.352803" lon="6.31751">
<ele>444</ele>
<time>2026-09-27T00:59:45Z</time></trkpt>
<trkpt lat="46.352916" lon="6.31754">
<ele>445</ele>
<time>2026-09-27T00:59:49Z</time></trkpt>
<trkpt lat="46.35303" lon="6.317517">
<ele>446</ele>
<time>2026-09-27T00:59:54Z</time></trkpt>
<trkpt lat="46.353165" lon="6.317467">
<ele>447</ele>
<time>2026-09-27T01:00:00Z</time></trkpt>
<trkpt lat="46.353165" lon="6.317467">
<ele>447</ele>
<time>2026-09-27T01:00:00Z</time></trkpt>
<trkpt lat="46.353262" lon="6.317431">
<ele>447</ele>
<time>2026-09-27T01:00:04Z</time></trkpt>
<trkpt lat="46.353508" lon="6.317389">
<ele>448</ele>
<time>2026-09-27T01:00:14Z</time></trkpt>
<trkpt lat="46.353514" lon="6.317415">
<ele>448</ele>
<time>2026-09-27T01:00:14Z</time></trkpt>
<trkpt lat="46.353517" lon="6.317427">
<ele>448</ele>
<time>2026-09-27T01:00:15Z</time></trkpt>
<trkpt lat="46.353533" lon="6.31742">
<ele>448</ele>
<time>2026-09-27T01:00:15Z</time></trkpt>
<trkpt lat="46.353568" lon="6.31737">
<ele>448</ele>
<time>2026-09-27T01:00:17Z</time></trkpt>
<trkpt lat="46.353632" lon="6.317405">
<ele>449</ele>
<time>2026-09-27T01:00:20Z</time></trkpt>
<trkpt lat="46.353664" lon="6.3174">
<ele>449</ele>
<time>2026-09-27T01:00:21Z</time></trkpt>
<trkpt lat="46.353972" lon="6.317269">
<ele>449</ele>
<time>2026-09-27T01:00:34Z</time></trkpt>
<trkpt lat="46.354038" lon="6.31724">
<ele>448</ele>
<time>2026-09-27T01:00:37Z</time></trkpt>
<trkpt lat="46.354376" lon="6.317247">
<ele>447</ele>
<time>2026-09-27T01:00:51Z</time></trkpt>
</trkseg>
</trk>
</gpx>